ORBCOMM FM05            
1 25117U 97084F   24347.87573926  .00002355  00000+0  71417-3 0  9998
2 25117  45.0127 181.8221 0001106  25.1282 334.9622 14.44672771413659
ORBCOMM FM06            
1 25118U 97084G   24347.90653733  .00002427  00000+0  73206-3 0  9996
2 25118  45.0119 181.6465 0000600  85.9040  13.1538 14.44858615414570
ORBCOMM FM07            
1 25119U 97084H   24347.89455177  .00002429  00000+0  73462-3 0  9993
2 25119  45.0114 182.4079 0001709   2.3435 357.7424 14.44725920414560
ORBCOMM FM03            
1 25158U 98007B   24348.02518334  .00002490  00000+0  93284-3 0  9995
2 25158 107.9668 113.3770 0048068 216.5976 143.1876 14.33578230397492
ORBCOMM FM04            
1 25159U 98007C   24347.83366158  .00002407  00000+0  90078-3 0  9995
2 25159 107.9654 116.0747 0043644 214.7645 145.0640 14.33849560397509
ORBCOMM FM17            
1 25413U 98046A   24347.65174077  .00001627  00000+0  62313-3 0  9992
2 25413  44.9950  57.5058 0002668 305.0774  54.9822 14.34346922376381
ORBCOMM FM18            
1 25414U 98046B   24348.10665257  .00002397  00000+0  83966-3 0  9991
2 25414  44.9938 337.5479 0003723  33.1615 326.9465 14.37523234377632
ORBCOMM FM19            
1 25415U 98046C   24347.71399333  .00002271  00000+0  80068-3 0  9998
2 25415  44.9950 341.1184 0003055  10.9762 158.7364 14.37343286377361
